[{"Id":0,"Name":"BestGym","FitnessAddress":{"StreetAndNumber":"Mirka Stulica 1g","City":"Apatin","PostalCode":"25260"},"Opened":2020,"FitnessOwner":"elonmusk","MonthlyMembershipCost":3000,"YearlyembershipCost":20000,"TrainingCost":500,"GroupTrainingCost":800,"ProffesionalTrainingCost":900,"Deleted":false},{"Id":1,"Name":"Synergy","FitnessAddress":{"StreetAndNumber":"Bulevar Oslobodjenja","City":"Novi Sad","PostalCode":"12322"},"Opened":213321,"FitnessOwner":"jeff","MonthlyMembershipCost":3000,"YearlyembershipCost":20000,"TrainingCost":500,"GroupTrainingCost":800,"ProffesionalTrainingCost":900,"Deleted":true},{"Id":2,"Name":"gsd","FitnessAddress":{"StreetAndNumber":"Trg Oslobodjenja 231","City":"Belgrade","PostalCode":"533123"},"Opened":2015,"FitnessOwner":"elonmusk","MonthlyMembershipCost":4000,"YearlyembershipCost":324,"TrainingCost":600,"GroupTrainingCost":400,"ProffesionalTrainingCost":1200,"Deleted":true},{"Id":3,"Name":"hggghgh","FitnessAddress":{"StreetAndNumber":"9400 S Normandie Ave #14","City":"Los Angeles","PostalCode":"90044"},"Opened":1988,"FitnessOwner":"jeff","MonthlyMembershipCost":11000,"YearlyembershipCost":55200,"TrainingCost":1500,"GroupTrainingCost":1000,"ProffesionalTrainingCost":2500,"Deleted":false},{"Id":4,"Name":"gds","FitnessAddress":{"StreetAndNumber":"9400 S Normandie Ave #14","City":"Los Angeles","PostalCode":"90044"},"Opened":1988,"FitnessOwner":"jeff","MonthlyMembershipCost":23,"YearlyembershipCost":2134,"TrainingCost":1500,"GroupTrainingCost":1000,"ProffesionalTrainingCost":2500,"Deleted":false},{"Id":5,"Name":"nnnnn","FitnessAddress":{"StreetAndNumber":"9400 S Normandie Ave #14","City":"Los Angeles","PostalCode":"90044"},"Opened":4328,"FitnessOwner":"jeff","MonthlyMembershipCost":11000,"YearlyembershipCost":55200,"TrainingCost":1500,"GroupTrainingCost":231,"ProffesionalTrainingCost":2500,"Deleted":true},{"Id":6,"Name":"33333","FitnessAddress":{"StreetAndNumber":"herqherq","City":"rwhteqw","PostalCode":"32443"},"Opened":5321,"FitnessOwner":"jeff","MonthlyMembershipCost":4632,"YearlyembershipCost":643,"TrainingCost":6341,"GroupTrainingCost":34,"ProffesionalTrainingCost":463,"Deleted":true},{"Id":7,"Name":"Royal","FitnessAddress":{"StreetAndNumber":"Alekse Santica 10","City":"Novi Sad","PostalCode":"12221"},"Opened":2013,"FitnessOwner":"elonmusk","MonthlyMembershipCost":2600,"YearlyembershipCost":12000,"TrainingCost":400,"GroupTrainingCost":200,"ProffesionalTrainingCost":1000,"Deleted":false}]